NAVSTAR 67 (USA 239)    
1 38833U 12053A   26158.34489778  .00000096  00000+0  00000+0 0  9991
2 38833  53.5842 144.0025 0179750  65.6197 296.2414  2.00567343 99245
NAVSTAR 68 (USA 242)    
1 39166U 13023A   26158.21158305 -.00000031  00000+0  00000+0 0  9994
2 39166  54.5121 269.3802 0141608  50.9995 310.2743  2.00563548 95683
NAVSTAR 69 (USA 248)    
1 39533U 14008A   26159.21030354  .00000106  00000+0  00000+0 0  9992
2 39533  53.6532 149.6858 0084237 231.1306 128.1213  2.00559220 89505
NAVSTAR 70 (USA 251)    
1 39741U 14026A   26158.98714032 -.00000057  00000+0  00000+0 0  9994
2 39741  56.5029 331.8757 0038249 326.7038  33.0643  2.00561693 88357
NAVSTAR 71 (USA 256)    
1 40105U 14045A   26159.07880508  .00000005  00000+0  00000+0 0  9996
2 40105  55.3475  88.8279 0032920 118.3764 241.9512  2.00557808 85898
NAVSTAR 72 (USA 258)    
1 40294U 14068A   26157.95235535 -.00000066  00000+0  00000+0 0  9997
2 40294  56.9806  31.3491 0066821  70.2149 290.5590  2.00575638 85001
NAVSTAR 73 (USA 260)    
1 40534U 15013A   26158.09036370  .00000057  00000+0  00000+0 0  9996
2 40534  53.1686 204.5953 0109348  40.1244 320.7540  2.00552172 81627
NAVSTAR 74 (USA 262)    
1 40730U 15033A   26158.74772176 -.00000031  00000+0  00000+0 0  9992
2 40730  53.9899 267.4759 0115032  30.1863 330.4949  2.00556722 79807
NAVSTAR 75 (USA 265)    
1 41019U 15062A   26158.30562493 -.00000066  00000+0  00000+0 0  9994
2 41019  56.9527  31.1920 0111617 231.1506 127.9002  2.00567051 77632
NAVSTAR 76 (USA 266)    
1 41328U 16007A   26155.90285179  .00000004  00000+0  00000+0 0  9994
2 41328  55.5169  89.9466 0096310 247.3906 111.5783  2.00552419 75593
NAVSTAR 77 (USA 289)    
1 43873U 18109A   26159.23559810  .00000013  00000+0  00000+0 0  9992
2 43873  55.6763  92.5404 0038217 198.1524 302.1790  2.00561280 54896
NAVSTAR 78 (USA 293)    
1 44506U 19056A   26157.17406002 -.00000063  00000+0  00000+0 0  9999
2 44506  55.6435 331.5809 0061451 197.4701 157.7136  2.00569824 49845
